STARLINK-2022           
1 47643U 21012Z   23279.55198356  .00000390  00000+0  45089-4 0  9996
2 47643  53.0553  65.1512 0001337  99.6241 260.4899 15.06381281146859
